[{"OBJECT_NAME":"ONEWEB-0406","OBJECT_ID":"2021-132T","EPOCH":"2026-03-09T17:23:05.821152","MEAN_MOTION":13.1868618,"ECCENTRICITY":0.00016851,"INCLINATION":87.9246,"RA_OF_ASC_NODE":355.2158,"ARG_OF_PERICENTER":62.3288,"MEAN_ANOMALY":297.8015,"EPHEMERIS_TYPE":0,"CLASSIFICATION_TYPE":"U","NORAD_CAT_ID":50486,"ELEMENT_SET_NO":999,"REV_AT_EPOCH":20851,"BSTAR":-0.00027701019,"MEAN_MOTION_DOT":-9.6e-7,"MEAN_MOTION_DDOT":0},{"OBJECT_NAME":"DELTA 1 DEB","OBJECT_ID":"1975-052AD","EPOCH":"2026-03-09T15:43:11.213760","MEAN_MOTION":13.58599501,"ECCENTRICITY":0.0223769,"INCLINATION":99.7898,"RA_OF_ASC_NODE":304.6028,"ARG_OF_PERICENTER":329.1709,"MEAN_ANOMALY":98.0032,"EPHEMERIS_TYPE":0,"CLASSIFICATION_TYPE":"U","NORAD_CAT_ID":21292,"ELEMENT_SET_NO":999,"REV_AT_EPOCH":72392,"BSTAR":0.00028554,"MEAN_MOTION_DOT":1.99e-6,"MEAN_MOTION_DDOT":0}]
